# 2019 07 04 17 02 55.42 35.7091 -117.5057 10.45 0 0 0 0 1
B918 4.6652 1 P
B918 8.4052 1 S
B917 6.7852 1 P
B917 11.9352 1 S
B921 2.8452 1 P
B921 5.3452 1 S
# 2019 07 04 17 09 20.20 35.7074 -117.5048 10.87 0 0 0 0 7
B918 4.6720 1 P
B918 8.4320 1 S
B917 6.7820 1 P
B917 11.8320 1 S
B921 2.8320 1 P
B921 5.1820 1 S
